GLOBALSTAR M001         
1 25162U 98008A   24278.55241576 -.00000054  00000+0  32384-3 0  9991
2 25162  52.0065 357.2631 0001932  84.3887  20.4045 12.38194733212041
GLOBALSTAR M004         
1 25163U 98008B   24278.86239160 -.00000005  00000+0  54635-3 0  9991
2 25163  51.9983 113.0749 0003954  84.3160  19.2320 12.63374329229417
GLOBALSTAR M002         
1 25164U 98008C   24278.83256192  .00000006  00000+0  16204-2 0  9992
2 25164  51.9994 160.4622 0002212  50.3093 309.7921 11.61504727154392
GLOBALSTAR M003         
1 25165U 98008D   24278.89304389  .00000072  00000+0  17241-2 0  9996
2 25165  51.9926 155.5715 0008375 135.9895 306.9725 12.12041874202269
GLOBALSTAR M014         
1 25306U 98023A   24278.91023434 -.00000068  00000+0  16947-3 0  9991
2 25306  51.9822  88.8564 0000372 167.1468 341.0084 11.65472323161405
GLOBALSTAR M006         
1 25307U 98023B   24278.93461315 -.00000001  00000+0  15301-2 0  9997
2 25307  51.9915 131.7307 0004092  18.5360  88.2803 11.58167993187251
GLOBALSTAR M015         
1 25308U 98023C   24278.85493035 -.00000001  00000+0  16502-2 0  9997
2 25308  51.9808 218.6977 0012871 344.6291  46.7468 11.48852009164733
GLOBALSTAR M008         
1 25309U 98023D   24278.85957385  .00000000  00000+0  75287-3 0  9995
2 25309  51.9959 218.3054 0002936   8.0842  25.0716 12.36051107206278
